{
  "type": "FeatureCollection",
  "features": [
    {
      "type": "Feature",
      "properties": {
        "norad_id": 66934,
        "name": "STARLINK-36153",
        "group": "last-30-days",
        "lat": 52.757543697042834,
        "lon": 121.16595131378295,
        "alt_km": 314.16643996518906,
        "timestamp": "2025-12-18T10:51:24.516596+00:00",
        "meta_object_name": "STARLINK-36153",
        "meta_object_id": "2025-286K",
        "meta_epoch": "2025-12-17T22:00:01.999584",
        "meta_mean_motion": 15.84611365,
        "meta_eccentricity": 6.878e-05,
        "meta_inclination": 53.156,
        "meta_ra_of_asc_node": 24.3914,
        "meta_arg_of_pericenter": 91.3121,
        "meta_mean_anomaly": 188.2953,
        "meta_ephemeris_type": 0,
        "meta_classification_type": "U",
        "meta_norad_cat_id": 66934,
        "meta_element_set_no": 999,
        "meta_rev_at_epoch": 282,
        "meta_bstar": -0.0063923398,
        "meta_mean_motion_dot": -0.01322841,
        "meta_mean_motion_ddot": 0,
        "tle_line1": "1 66934U 25286K   25351.91668981 -.01322841  00000+0 -63923-2 0  9992",
        "tle_line2": "2 66934  53.1560  24.3914 0000687  91.3121 188.2953 15.84611365  2829"
      },
      "geometry": {
        "type": "Point",
        "coordinates": [
          121.16595131378295,
          52.757543697042834
        ]
      }
    },
    {
      "type": "Feature",
      "properties": {
        "norad_id": 66935,
        "name": "STARLINK-36127",
        "group": "last-30-days",
        "lat": 52.36706623779733,
        "lon": 125.14800694321322,
        "alt_km": 314.1965541751915,
        "timestamp": "2025-12-18T10:51:24.516609+00:00",
        "meta_object_name": "STARLINK-36127",
        "meta_object_id": "2025-286L",
        "meta_epoch": "2025-12-17T22:00:01.999584",
        "meta_mean_motion": 15.84611736,
        "meta_eccentricity": 7.303e-05,
        "meta_inclination": 53.156,
        "meta_ra_of_asc_node": 24.3865,
        "meta_arg_of_pericenter": 84.9501,
        "meta_mean_anomaly": 197.1139,
        "meta_ephemeris_type": 0,
        "meta_classification_type": "U",
        "meta_norad_cat_id": 66935,
        "meta_element_set_no": 999,
        "meta_rev_at_epoch": 282,
        "meta_bstar": -0.0064279127,
        "meta_mean_motion_dot": -0.01329341,
        "meta_mean_motion_ddot": 0,
        "tle_line1": "1 66935U 25286L   25351.91668981 -.01329341  00000+0 -64279-2 0  9990",
        "tle_line2": "2 66935  53.1560  24.3865 0000730  84.9501 197.1139 15.84611736  2821"
      },
      "geometry": {
        "type": "Point",
        "coordinates": [
          125.14800694321322,
          52.36706623779733
        ]
      }
    },
    {
      "type": "Feature",
      "properties": {
        "norad_id": 66936,
        "name": "STARLINK-36160",
        "group": "last-30-days",
        "lat": 51.92489201932722,
        "lon": 128.51401522175814,
        "alt_km": 314.243736856577,
        "timestamp": "2025-12-18T10:51:24.516622+00:00",
        "meta_object_name": "STARLINK-36160",
        "meta_object_id": "2025-286M",
        "meta_epoch": "2025-12-17T22:00:01.999584",
        "meta_mean_motion": 15.84628141,
        "meta_eccentricity": 7.322e-05,
        "meta_inclination": 53.1559,
        "meta_ra_of_asc_node": 24.3824,
        "meta_arg_of_pericenter": 91.8699,
        "meta_mean_anomaly": 192.2847,
        "meta_ephemeris_type": 0,
        "meta_classification_type": "U",
        "meta_norad_cat_id": 66936,
        "meta_element_set_no": 999,
        "meta_rev_at_epoch": 282,
        "meta_bstar": -0.0064669936,
        "meta_mean_motion_dot": -0.01337353,
        "meta_mean_motion_ddot": 0,
        "tle_line1": "1 66936U 25286M   25351.91668981 -.01337353  00000+0 -64670-2 0  9998",
        "tle_line2": "2 66936  53.1559  24.3824 0000732  91.8699 192.2847 15.84628141  2822"
      },
      "geometry": {
        "type": "Point",
        "coordinates": [
          128.51401522175814,
          51.92489201932722
        ]
      }
    },
    {
      "type": "Feature",
      "properties": {
        "norad_id": 66937,
        "name": "STARLINK-36165",
        "group": "last-30-days",
        "lat": 51.37851867537572,
        "lon": 131.86295448861233,
        "alt_km": 314.2876134982771,
        "timestamp": "2025-12-18T10:51:24.516632+00:00",
        "meta_object_name": "STARLINK-36165",
        "meta_object_id": "2025-286N",
        "meta_epoch": "2025-12-17T22:00:01.999584",
        "meta_mean_motion": 15.84639422,
        "meta_eccentricity": 7.446e-05,
        "meta_inclination": 53.1559,
        "meta_ra_of_asc_node": 24.3776,
        "meta_arg_of_pericenter": 88.3663,
        "meta_mean_anomaly": 197.9189,
        "meta_ephemeris_type": 0,
        "meta_classification_type": "U",
        "meta_norad_cat_id": 66937,
        "meta_element_set_no": 999,
        "meta_rev_at_epoch": 282,
        "meta_bstar": -0.0064883265,
        "meta_mean_motion_dot": -0.01341865,
        "meta_mean_motion_ddot": 0,
        "tle_line1": "1 66937U 25286N   25351.91668981 -.01341865  00000+0 -64883-2 0  9998",
        "tle_line2": "2 66937  53.1559  24.3776 0000744  88.3663 197.9189 15.84639422  2829"
      },
      "geometry": {
        "type": "Point",
        "coordinates": [
          131.86295448861233,
          51.37851867537572
        ]
      }
    },
    {
      "type": "Feature",
      "properties": {
        "norad_id": 66938,
        "name": "STARLINK-36155",
        "group": "last-30-days",
        "lat": 50.73376121435547,
        "lon": 135.14900123703026,
        "alt_km": 314.3242862052575,
        "timestamp": "2025-12-18T10:51:24.516643+00:00",
        "meta_object_name": "STARLINK-36155",
        "meta_object_id": "2025-286P",
        "meta_epoch": "2025-12-17T22:00:01.999584",
        "meta_mean_motion": 15.84641653,
        "meta_eccentricity": 7.525e-05,
        "meta_inclination": 53.1557,
        "meta_ra_of_asc_node": 24.373,
        "meta_arg_of_pericenter": 75.218,
        "meta_mean_anomaly": 213.202,
        "meta_ephemeris_type": 0,
        "meta_classification_type": "U",
        "meta_norad_cat_id": 66938,
        "meta_element_set_no": 999,
        "meta_rev_at_epoch": 282,
        "meta_bstar": -0.0063978454,
        "meta_mean_motion_dot": -0.01325588,
        "meta_mean_motion_ddot": 0,
        "tle_line1": "1 66938U 25286P   25351.91668981 -.01325588  00000+0 -63978-2 0  9997",
        "tle_line2": "2 66938  53.1557  24.3730 0000752  75.2180 213.2020 15.84641653  2821"
      },
      "geometry": {
        "type": "Point",
        "coordinates": [
          135.14900123703026,
          50.73376121435547
        ]
      }
    },
    {
      "type": "Feature",
      "properties": {
        "norad_id": 66939,
        "name": "STARLINK-36154",
        "group": "last-30-days",
        "lat": 49.08030240416532,
        "lon": 141.77680755466807,
        "alt_km": 314.5360236669776,
        "timestamp": "2025-12-18T10:51:24.516653+00:00",
        "meta_object_name": "STARLINK-36154",
        "meta_object_id": "2025-286Q",
        "meta_epoch": "2025-12-17T22:00:01.999584",
        "meta_mean_motion": 15.84664425,
        "meta_eccentricity": 8.675e-05,
        "meta_inclination": 53.1556,
        "meta_ra_of_asc_node": 24.3635,
        "meta_arg_of_pericenter": 84.6285,
        "meta_mean_anomaly": 208.3683,
        "meta_ephemeris_type": 0,
        "meta_classification_type": "U",
        "meta_norad_cat_id": 66939,
        "meta_element_set_no": 999,
        "meta_rev_at_epoch": 282,
        "meta_bstar": -0.0065907546,
        "meta_mean_motion_dot": -0.01361887,
        "meta_mean_motion_ddot": 0,
        "tle_line1": "1 66939U 25286Q   25351.91668981 -.01361887  00000+0 -65908-2 0  9995",
        "tle_line2": "2 66939  53.1556  24.3635 0000867  84.6285 208.3683 15.84664425  2824"
      },
      "geometry": {
        "type": "Point",
        "coordinates": [
          141.77680755466807,
          49.08030240416532
        ]
      }
    },
    {
      "type": "Feature",
      "properties": {
        "norad_id": 66940,
        "name": "STARLINK-36121",
        "group": "last-30-days",
        "lat": 48.2034902065881,
        "lon": 144.65016855247995,
        "alt_km": 314.70973374251935,
        "timestamp": "2025-12-18T10:51:24.516663+00:00",
        "meta_object_name": "STARLINK-36121",
        "meta_object_id": "2025-286R",
        "meta_epoch": "2025-12-17T22:00:01.999584",
        "meta_mean_motion": 15.84678514,
        "meta_eccentricity": 7.39e-05,
        "meta_inclination": 53.1554,
        "meta_ra_of_asc_node": 24.359,
        "meta_arg_of_pericenter": 91.3804,
        "meta_mean_anomaly": 203.6852,
        "meta_ephemeris_type": 0,
        "meta_classification_type": "U",
        "meta_norad_cat_id": 66940,
        "meta_element_set_no": 999,
        "meta_rev_at_epoch": 282,
        "meta_bstar": -0.0066035536,
        "meta_mean_motion_dot": -0.01364925,
        "meta_mean_motion_ddot": 0,
        "tle_line1": "1 66940U 25286R   25351.91668981 -.01364925  00000+0 -66036-2 0  9996",
        "tle_line2": "2 66940  53.1554  24.3590 0000739  91.3804 203.6852 15.84678514  2824"
      },
      "geometry": {
        "type": "Point",
        "coordinates": [
          144.65016855247995,
          48.2034902065881
        ]
      }
    }
  ]
}